NORAD_CAT_ID,OBJECT_NAME,OBJECT_TYPE,EPOCH,MEAN_MOTION,ECCENTRICITY,INCLINATION,RA_OF_ASC_NODE,ARG_OF_PERICENTER,MEAN_ANOMALY,BSTAR,MEAN_MOTION_DOT,MEAN_MOTION_DDOT,TLE_LINE0,TLE_LINE1,TLE_LINE2,SEMIMAJOR_AXIS,PERIOD,APOGEE,PERIGEE,DECAYED
49417.0,STARLINK-3154,PAYLOAD,2022-08-25 08:35:31,15.08833699,0.0002290999999999,53.2149,260.6335,38.742,321.3736,7.7702e-05,9.48e-06,0.0,0 STARLINK-3154,1 49417U 21104K   22237.35800111  .00000948  00000-0  77702-4 0  9996,2 49417  53.2149 260.6335 0002291  38.7420 321.3736 15.08833699 43660,6917.9,95.438,541.35,538.18,0.0
49417.0,STARLINK-3154,PAYLOAD,2022-08-25 18:07:50,15.08835681,0.0002346999999999,53.215,258.849,38.3368,321.7791,6.5689e-05,7.57e-06,0.0,0 STARLINK-3154,1 49417U 21104K   22237.75544135  .00000757  00000-0  65689-4 0  9990,2 49417  53.2150 258.8490 0002347  38.3368 321.7791 15.08835681 43727,6917.894,95.438,541.382,538.135,0.0
49417.0,STARLINK-3154,PAYLOAD,2022-08-26 10:01:41,15.08839675,0.0002373,53.2149,255.8755,39.5456,320.5709,5.6055e-05,6.04e-06,0.0,0 STARLINK-3154,1 49417U 21104K   22238.41784008  .00000604  00000-0  56055-4 0  9997,2 49417  53.2149 255.8755 0002373  39.5456 320.5709 15.08839675 43820,6917.880999999999,95.438,541.388,538.105,0.0
49417.0,STARLINK-3154,PAYLOAD,2022-08-27 09:52:28,15.08836407,0.0002460999999999,53.2149,251.4148,41.4639,318.654,8.42e-06,-1.54e-06,0.0,0 STARLINK-3154,1 49417U 21104K   22239.41144645 -.00000154  00000-0  84200-5 0  9990,2 49417  53.2149 251.4148 0002461  41.4639 318.6540 15.08836407 43978,6917.891,95.438,541.4590000000002,538.054,0.0
49417.0,STARLINK-3154,PAYLOAD,2022-08-27 17:49:24,15.08838154,0.000244,53.2147,249.9282,42.7985,317.3197,1.7839e-05,-4e-08,0.0,0 STARLINK-3154,1 49417U 21104K   22239.74264541 -.00000004  00000-0  17839-4 0  9991,2 49417  53.2147 249.9282 0002440  42.7985 317.3197 15.08838154 44024,6917.886,95.438,541.439,538.063,0.0
49417.0,STARLINK-3154,PAYLOAD,2022-08-28 09:43:15,15.08842085,0.0002481,53.2146,246.9543,43.8313,316.2875,2.5831e-05,1.23e-06,0.0,0 STARLINK-3154,1 49417U 21104K   22240.40504300  .00000123  00000-0  25831-4 0  9998,2 49417  53.2146 246.9543 0002481  43.8313 316.2875 15.08842085 45235,6917.874,95.437,541.455,538.023,0.0
49417.0,STARLINK-3154,PAYLOAD,2022-08-29 07:58:39,15.08844857,0.00025,53.2148,242.7906,45.8722,314.2475,8.9017e-05,1.129e-05,0.0,0 STARLINK-3154,1 49417U 21104K   22241.33239826  .00001129  00000-0  89017-4 0  9992,2 49417  53.2148 242.7906 0002500  45.8722 314.2475 15.08844857 44267,6917.866,95.437,541.46,538.001,0.0
49417.0,STARLINK-3154,PAYLOAD,2022-08-29 17:30:57,15.08847453,0.0002515,53.2147,241.0063,46.5197,313.6004,9.5914e-05,1.239e-05,0.0,0 STARLINK-3154,1 49417U 21104K   22241.72983509  .00001239  00000-0  95914-4 0  9994,2 49417  53.2147 241.0063 0002515  46.5197 313.6004 15.08847453 45438,6917.858,95.437,541.462,537.9830000000002,0.0
49417.0,STARLINK-3154,PAYLOAD,2022-08-30 04:38:40,15.08835526,0.0002539,53.215,238.9248,48.0731,312.0477,-2.599300000000001e-05,-7.02e-06,0.0,0 STARLINK-3154,1 49417U 21104K   22242.19352571 -.00000702  00000-0 -25993-4 0  9991,2 49417  53.2150 238.9248 0002539  48.0731 312.0477 15.08835526 45502,6917.894,95.438,541.516,538.003,0.0
49417.0,STARLINK-3154,PAYLOAD,2022-08-30 09:24:50,15.08835763,0.0002525,53.2148,238.0326,48.2715,311.8493,-4.0808e-05,-9.38e-06,0.0,0 STARLINK-3154,1 49417U 21104K   22242.39224623 -.00000938  00000-0 -40808-4 0  9992,2 49417  53.2148 238.0326 0002525  48.2715 311.8493 15.08835763 44424,6917.893,95.438,541.505,538.012,0.0
49417.0,STARLINK-3154,PAYLOAD,2022-08-30 17:21:45,15.08836761,0.000254,53.2149,236.5457,48.7925,311.3286,-2.7396e-05,-7.24e-06,0.0,0 STARLINK-3154,1 49417U 21104K   22242.72344565 -.00000724  00000-0 -27396-4 0  9997,2 49417  53.2149 236.5457 0002540  48.7925 311.3286 15.08836761 44477,6917.89,95.438,541.512,537.998,0.0
49417.0,STARLINK-3154,PAYLOAD,2022-08-31 09:15:36,15.08841539,0.0002528999999999,53.2151,233.5717,49.9052,310.2162,-2.9808000000000013e-05,-7.63e-06,0.0,0 STARLINK-3154,1 49417U 21104K   22243.38584217 -.00000763  00000-0 -29808-4 0  9993,2 49417  53.2151 233.5717 0002529  49.9052 310.2162 15.08841539 44578,6917.876,95.437,541.49,537.991,0.0
49417.0,STARLINK-3154,PAYLOAD,2022-09-01 07:31:01,15.08824956,0.0002572,53.2149,229.4092,46.5785,313.5421,-1.6399e-05,-5.49e-06,0.0,0 STARLINK-3154,1 49417U 21104K   22244.31321368 -.00000549  00000-0 -16399-4 0  9996,2 49417  53.2149 229.4092 0002572  46.5785 313.5421 15.08824956 44713,6917.926,95.439,541.571,538.012,0.0
49417.0,STARLINK-3154,PAYLOAD,2022-09-02 04:11:02,15.08830681,0.0002582,53.2148,225.5435,47.5168,312.6042,1.1985999999999997e-05,-9.8e-07,0.0,0 STARLINK-3154,1 49417U 21104K   22245.17433545 -.00000098  00000-0  11986-4 0  9997,2 49417  53.2148 225.5435 0002582  47.5168 312.6042 15.08830681 45955,6917.909000000002,95.438,541.56,537.988,0.0
49417.0,STARLINK-3154,PAYLOAD,2022-09-02 07:21:48,15.08833564,0.0002596,53.215,224.9485,47.2684,312.8526,4.1454e-06,-2.23e-06,0.0,0 STARLINK-3154,1 49417U 21104K   22245.30681460 -.00000223  00000-0  41454-5 0  9997,2 49417  53.2150 224.9485 0002596  47.2684 312.8526 15.08833564 44862,6917.9,95.438,541.561,537.969,0.0
49417.0,STARLINK-3154,PAYLOAD,2022-09-02 15:18:44,15.08836168,0.0002601,53.2149,223.4617,47.7581,312.3632,9.2553e-06,-1.41e-06,0.0,0 STARLINK-3154,1 49417U 21104K   22245.63801407 -.00000141  00000-0  92553-5 0  9993,2 49417  53.2149 223.4617 0002601  47.7581 312.3632 15.08836168 44911,6917.892,95.438,541.556,537.9580000000002,0.0
49417.0,STARLINK-3154,PAYLOAD,2022-09-03 05:37:12,15.08833784,0.0002656,53.2151,220.7852,49.4245,310.6978,0.0001230999999999,1.671e-05,0.0,0 STARLINK-3154,1 49417U 21104K   22246.23417436  .00001671  00000-0  12310-3 0  9994,2 49417  53.2151 220.7852 0002656  49.4245 310.6978 15.08833784 46110,6917.899,95.438,541.602,537.927,0.0
49417.0,STARLINK-3154,PAYLOAD,2022-09-03 08:47:58,15.08835549,0.0002676,53.2153,220.1906,49.8637,310.259,0.0001356,1.87e-05,0.0,0 STARLINK-3154,1 49417U 21104K   22246.36665358  .00001870  00000-0  13560-3 0  9995,2 49417  53.2153 220.1906 0002676  49.8637 310.2590 15.08835549 45023,6917.894,95.438,541.61,537.908,0.0
49417.0,STARLINK-3154,PAYLOAD,2022-09-03 21:31:04,15.08837299,0.0002835,53.2156,217.8114,54.0653,306.0602,6.4934e-05,7.45e-06,0.0,0 STARLINK-3154,1 49417U 21104K   22246.89657733  .00000745  00000-0  64934-4 0  9993,2 49417  53.2156 217.8114 0002835  54.0653 306.0602 15.08837299 45103,6917.889,95.438,541.715,537.7919999999998,0.0
49417.0,STARLINK-3154,PAYLOAD,2022-09-04 07:03:23,15.08834213,0.0002835,53.2159,216.0268,53.2087,306.9165,-6.6434e-07,-2.99e-06,0.0,0 STARLINK-3154,1 49417U 21104K   22247.29402221 -.00000299  00000-0 -66434-6 0  9993,2 49417  53.2159 216.0268 0002835  53.2087 306.9165 15.08834213 46274,6917.898,95.438,541.724,537.802,0.0
49417.0,STARLINK-3154,PAYLOAD,2022-09-05 03:43:23,15.08831137,0.0002525999999999,53.2156,212.1605,70.6687,289.4578,0.00037666,5.710000000000001e-05,0.0,0 STARLINK-3154,1 49417U 21104K   22248.15512988  .00005710  00000-0  37666-3 0  9994,2 49417  53.2156 212.1605 0002526  70.6687 289.4578 15.08831137 46409,6917.906999999997,95.438,541.52,538.025,0.0
49417.0,STARLINK-3154,PAYLOAD,2022-09-05 08:29:33,15.08805489,0.0002953999999999,53.2156,211.2687,57.0484,303.0792,0.0008253,0.00012859,0.0,0 STARLINK-3154,1 49417U 21104K   22248.35385739  .00012859  00000-0  82530-3 0  9990,2 49417  53.2156 211.2687 0002954  57.0484 303.0792 15.08805489 46433,6917.986,95.44,541.894,537.807,0.0
49417.0,STARLINK-3154,PAYLOAD,2022-09-06 03:34:10,15.08842466,0.0002605,53.2167,207.7001,55.4942,304.6296,8.168e-05,1.012e-05,0.0,0 STARLINK-3154,1 49417U 21104K   22249.14872754  .00001012  00000-0  81680-4 0  9991,2 49417  53.2167 207.7001 0002605  55.4942 304.6296 15.08842466 46554,6917.873000000001,95.437,541.54,537.936,0.0
49417.0,STARLINK-3154,PAYLOAD,2022-09-06 06:44:56,15.08840132,0.0002628999999999,53.2164,207.1055,54.4644,305.6593,5.7044e-05,6.2e-06,0.0,0 STARLINK-3154,1 49417U 21104K   22249.28120908  .00000620  00000-0  57044-4 0  9994,2 49417  53.2164 207.1055 0002629  54.4644 305.6593 15.08840132 45466,6917.88,95.438,541.564,537.9259999999998,0.0
49417.0,STARLINK-3154,PAYLOAD,2022-09-06 14:41:52,15.08842433,0.000273,53.217,205.6192,53.4609,306.6634,4.2637e-05,3.9e-06,0.0,0 STARLINK-3154,1 49417U 21104K   22249.61240742  .00000390  00000-0  42637-4 0  9996,2 49417  53.2170 205.6192 0002730  53.4609 306.6634 15.08842433 45510,6917.873000000001,95.437,541.627,537.849,0.0
49417.0,STARLINK-3154,PAYLOAD,2022-09-07 06:35:44,15.08837549,0.0002624,53.2154,202.6453,52.9878,307.1354,-0.00013436,-2.426e-05,0.0,0 STARLINK-3154,1 49417U 21104K   22250.27481814 -.00002426  00000-0 -13436-3 0  9995,2 49417  53.2154 202.6453 0002624  52.9878 307.1354 15.08837549 45611,6917.888000000001,95.438,541.568,537.938,0.0
49417.0,STARLINK-3154,PAYLOAD,2022-09-07 14:32:39,15.08842251,0.0002636,53.2162,201.1583,55.4284,304.6957,-7.406e-05,-1.467e-05,0.0,0 STARLINK-3154,1 49417U 21104K   22250.60601280 -.00001467  00000-0 -74060-4 0  9998,2 49417  53.2162 201.1583 0002636  55.4284 304.6957 15.08842251 45662,6917.874,95.437,541.562,537.915,0.0
49417.0,STARLINK-3154,PAYLOAD,2022-09-08 00:04:59,15.087747199999995,0.0002121,53.2148,199.3757,53.382,306.7367,0.00091223,0.00014234,0.0,0 STARLINK-3154,1 49417U 21104K   22251.00346470  .00014234  00000-0  91223-3 0  9993,2 49417  53.2148 199.3757 0002121  53.3820 306.7367 15.08774720 46832,6918.08,95.442,541.4119999999998,538.4780000000002,0.0
49417.0,STARLINK-3154,PAYLOAD,2022-09-08 06:26:30,15.08841421,0.0002625,53.215,198.1855,50.4574,309.665,8.8385e-05,1.119e-05,0.0,0 STARLINK-3154,1 49417U 21104K   22251.26840642  .00001119  00000-0  88385-4 0  9995,2 49417  53.2150 198.1855 0002625  50.4574 309.6650 15.08841421 45765,6917.876,95.437,541.557,537.925,0.0
